{
  "type": "FeatureCollection",
  "features": [
    {
      "type": "Feature",
      "properties": {
        "norad_id": 40730,
        "name": "GPS BIIF-10 (PRN 08)",
        "group": "gps-ops",
        "lat": 50.588498225020764,
        "lon": 32.67209879070842,
        "alt_km": 20123.982452694476,
        "timestamp": "2025-12-24T20:42:21.285860+00:00",
        "meta_object_name": "GPS BIIF-10 (PRN 08)",
        "meta_object_id": "2015-033A",
        "meta_epoch": "2025-12-23T05:17:42.404352",
        "meta_mean_motion": 2.00565183,
        "meta_eccentricity": 0.01115799,
        "meta_inclination": 54.1216,
        "meta_ra_of_asc_node": 274.3416,
        "meta_arg_of_pericenter": 27.0753,
        "meta_mean_anomaly": 333.5521,
        "meta_ephemeris_type": 0,
        "meta_classification_type": "U",
        "meta_norad_cat_id": 40730,
        "meta_element_set_no": 999,
        "meta_rev_at_epoch": 7646,
        "meta_bstar": 0,
        "meta_mean_motion_dot": -1.3e-07,
        "meta_mean_motion_ddot": 0,
        "tle_line1": "1 40730U 15033A   25357.22062968 -.00000013  00000+0  00000+0 0  9996",
        "tle_line2": "2 40730  54.1216 274.3416 0111579  27.0753 333.5521  2.00565183 76465"
      },
      "geometry": {
        "type": "Point",
        "coordinates": [
          32.67209879070842,
          50.588498225020764
        ]
      }
    },
    {
      "type": "Feature",
      "properties": {
        "norad_id": 41019,
        "name": "GPS BIIF-11 (PRN 10)",
        "group": "gps-ops",
        "lat": 47.424963067409394,
        "lon": 82.88942634899217,
        "alt_km": 20465.985243969368,
        "timestamp": "2025-12-24T20:42:21.285871+00:00",
        "meta_object_name": "GPS BIIF-11 (PRN 10)",
        "meta_object_id": "2015-062A",
        "meta_epoch": "2025-12-23T18:41:09.835584",
        "meta_mean_motion": 2.00567099,
        "meta_eccentricity": 0.01110889,
        "meta_inclination": 56.8401,
        "meta_ra_of_asc_node": 37.5754,
        "meta_arg_of_pericenter": 230.2332,
        "meta_mean_anomaly": 128.8479,
        "meta_ephemeris_type": 0,
        "meta_classification_type": "U",
        "meta_norad_cat_id": 41019,
        "meta_element_set_no": 999,
        "meta_rev_at_epoch": 7431,
        "meta_bstar": 0,
        "meta_mean_motion_dot": -4.7e-07,
        "meta_mean_motion_ddot": 0,
        "tle_line1": "1 41019U 15062A   25357.77858606 -.00000047  00000+0  00000+0 0  9998",
        "tle_line2": "2 41019  56.8401  37.5754 0111088 230.2332 128.8479  2.00567099 74318"
      },
      "geometry": {
        "type": "Point",
        "coordinates": [
          82.88942634899217,
          47.424963067409394
        ]
      }
    },
    {
      "type": "Feature",
      "properties": {
        "norad_id": 41328,
        "name": "GPS BIIF-12 (PRN 32)",
        "group": "gps-ops",
        "lat": 2.4647681784240234,
        "lon": 98.0804772836152,
        "alt_km": 20300.92216841203,
        "timestamp": "2025-12-24T20:42:21.285883+00:00",
        "meta_object_name": "GPS BIIF-12 (PRN 32)",
        "meta_object_id": "2016-007A",
        "meta_epoch": "2025-12-23T20:40:23.632032",
        "meta_mean_motion": 2.00560126,
        "meta_eccentricity": 0.00927286,
        "meta_inclination": 55.4122,
        "meta_ra_of_asc_node": 96.4156,
        "meta_arg_of_pericenter": 243.8623,
        "meta_mean_anomaly": 115.1928,
        "meta_ephemeris_type": 0,
        "meta_classification_type": "U",
        "meta_norad_cat_id": 41328,
        "meta_element_set_no": 999,
        "meta_rev_at_epoch": 7232,
        "meta_bstar": 0,
        "meta_mean_motion_dot": 1.1e-07,
        "meta_mean_motion_ddot": 0,
        "tle_line1": "1 41328U 16007A   25357.86138463  .00000011  00000+0  00000+0 0  9993",
        "tle_line2": "2 41328  55.4122  96.4156 0092728 243.8623 115.1928  2.00560126 72329"
      },
      "geometry": {
        "type": "Point",
        "coordinates": [
          98.0804772836152,
          2.4647681784240234
        ]
      }
    },
    {
      "type": "Feature",
      "properties": {
        "norad_id": 43873,
        "name": "GPS BIII-1  (PRN 04)",
        "group": "gps-ops",
        "lat": -53.44635695508516,
        "lon": -13.445275571486658,
        "alt_km": 20140.496467894205,
        "timestamp": "2025-12-24T20:42:21.285893+00:00",
        "meta_object_name": "GPS BIII-1  (PRN 04)",
        "meta_object_id": "2018-109A",
        "meta_epoch": "2025-12-24T00:11:38.701248",
        "meta_mean_motion": 2.00553951,
        "meta_eccentricity": 0.00376154,
        "meta_inclination": 55.5728,
        "meta_ra_of_asc_node": 99.1026,
        "meta_arg_of_pericenter": 195.5466,
        "meta_mean_anomaly": 163.7899,
        "meta_ephemeris_type": 0,
        "meta_classification_type": "U",
        "meta_norad_cat_id": 43873,
        "meta_element_set_no": 999,
        "meta_rev_at_epoch": 5155,
        "meta_bstar": 0,
        "meta_mean_motion_dot": 1.5e-07,
        "meta_mean_motion_ddot": 0,
        "tle_line1": "1 43873U 18109A   25358.00808682  .00000015  00000+0  00000+0 0  9993",
        "tle_line2": "2 43873  55.5728  99.1026 0037615 195.5466 163.7899  2.00553951 51553"
      },
      "geometry": {
        "type": "Point",
        "coordinates": [
          -13.445275571486658,
          -53.44635695508516
        ]
      }
    },
    {
      "type": "Feature",
      "properties": {
        "norad_id": 44506,
        "name": "GPS BIII-2  (PRN 18)",
        "group": "gps-ops",
        "lat": 21.65298541653837,
        "lon": 142.3510564704128,
        "alt_km": 20071.014993802804,
        "timestamp": "2025-12-24T20:42:21.285904+00:00",
        "meta_object_name": "GPS BIII-2  (PRN 18)",
        "meta_object_id": "2019-056A",
        "meta_epoch": "2025-12-23T09:23:28.795200",
        "meta_mean_motion": 2.0056658,
        "meta_eccentricity": 0.00577459,
        "meta_inclination": 55.7176,
        "meta_ra_of_asc_node": 338.1305,
        "meta_arg_of_pericenter": 198.6012,
        "meta_mean_anomaly": 332.8304,
        "meta_ephemeris_type": 0,
        "meta_classification_type": "U",
        "meta_norad_cat_id": 44506,
        "meta_element_set_no": 999,
        "meta_rev_at_epoch": 4654,
        "meta_bstar": 0,
        "meta_mean_motion_dot": -6.4e-07,
        "meta_mean_motion_ddot": 0,
        "tle_line1": "1 44506U 19056A   25357.39130550 -.00000064  00000+0  00000+0 0  9997",
        "tle_line2": "2 44506  55.7176 338.1305 0057745 198.6012 332.8304  2.00566580 46544"
      },
      "geometry": {
        "type": "Point",
        "coordinates": [
          142.3510564704128,
          21.65298541653837
        ]
      }
    },
    {
      "type": "Feature",
      "properties": {
        "norad_id": 45854,
        "name": "GPS BIII-3  (PRN 23)",
        "group": "gps-ops",
        "lat": 55.898195987415484,
        "lon": 138.37769546934211,
        "alt_km": 20221.693018949114,
        "timestamp": "2025-12-24T20:42:21.285925+00:00",
        "meta_object_name": "GPS BIII-3  (PRN 23)",
        "meta_object_id": "2020-041A",
        "meta_epoch": "2025-12-24T07:36:15.586848",
        "meta_mean_motion": 2.00561688,
        "meta_eccentricity": 0.00606528,
        "meta_inclination": 56.5546,
        "meta_ra_of_asc_node": 35.7353,
        "meta_arg_of_pericenter": 203.7393,
        "meta_mean_anomaly": 219.8521,
        "meta_ephemeris_type": 0,
        "meta_classification_type": "U",
        "meta_norad_cat_id": 45854,
        "meta_element_set_no": 999,
        "meta_rev_at_epoch": 4053,
        "meta_bstar": 0,
        "meta_mean_motion_dot": -4.9e-07,
        "meta_mean_motion_ddot": 0,
        "tle_line1": "1 45854U 20041A   25358.31684707 -.00000049  00000+0  00000+0 0  9994",
        "tle_line2": "2 45854  56.5546  35.7353 0060652 203.7393 219.8521  2.00561688 40537"
      },
      "geometry": {
        "type": "Point",
        "coordinates": [
          138.37769546934211,
          55.898195987415484
        ]
      }
    },
    {
      "type": "Feature",
      "properties": {
        "norad_id": 46826,
        "name": "GPS BIII-4  (PRN 14)",
        "group": "gps-ops",
        "lat": 48.814723546731656,
        "lon": -85.99310561612593,
        "alt_km": 20297.75952482693,
        "timestamp": "2025-12-24T20:42:21.285949+00:00",
        "meta_object_name": "GPS BIII-4  (PRN 14)",
        "meta_object_id": "2020-078A",
        "meta_epoch": "2025-12-16T01:06:13.902336",
        "meta_mean_motion": 2.00566891,
        "meta_eccentricity": 0.00647535,
        "meta_inclination": 54.0144,
        "meta_ra_of_asc_node": 218.2068,
        "meta_arg_of_pericenter": 203.3802,
        "meta_mean_anomaly": 339.3962,
        "meta_ephemeris_type": 0,
        "meta_classification_type": "U",
        "meta_norad_cat_id": 46826,
        "meta_element_set_no": 999,
        "meta_rev_at_epoch": 3783,
        "meta_bstar": 0,
        "meta_mean_motion_dot": 6.7e-07,
        "meta_mean_motion_ddot": 0,
        "tle_line1": "1 46826U 20078A   25350.04599424  .00000067  00000+0  00000+0 0  9996",
        "tle_line2": "2 46826  54.0144 218.2068 0064753 203.3802 339.3962  2.00566891 37839"
      },
      "geometry": {
        "type": "Point",
        "coordinates": [
          -85.99310561612593,
          48.814723546731656
        ]
      }
    }
  ]
}